{
  "type": "FeatureCollection",
  "features": [
    {
      "type": "Feature",
      "properties": {
        "norad_id": 30059,
        "name": "FENGYUN 1C DEB",
        "group": "fengyun-1c-debris",
        "lat": -53.92230714282395,
        "lon": 148.88651390370168,
        "alt_km": 1006.5679283315067,
        "timestamp": "2025-12-11T18:59:46.346751+00:00",
        "meta_object_name": "FENGYUN 1C DEB",
        "meta_object_id": "1999-025PL",
        "meta_epoch": "2025-12-11T05:22:01.922304",
        "meta_mean_motion": 13.45493176,
        "meta_eccentricity": 0.03266866,
        "meta_inclination": 98.8224,
        "meta_ra_of_asc_node": 340.693,
        "meta_arg_of_pericenter": 306.5395,
        "meta_mean_anomaly": 62.5402,
        "meta_ephemeris_type": 0,
        "meta_classification_type": "U",
        "meta_norad_cat_id": 30059,
        "meta_element_set_no": 999,
        "meta_rev_at_epoch": 92777,
        "meta_bstar": 0.00056822582,
        "meta_mean_motion_dot": 4.26e-06,
        "meta_mean_motion_ddot": 0,
        "tle_line1": "1 30059U 99025PL  25345.22363336  .00000426  00000+0  56823-3 0  9997",
        "tle_line2": "2 30059  98.8224 340.6930 0326686 306.5395  62.5402 13.45493176927773"
      },
      "geometry": {
        "type": "Point",
        "coordinates": [
          148.88651390370168,
          -53.92230714282395
        ]
      }
    },
    {
      "type": "Feature",
      "properties": {
        "norad_id": 30060,
        "name": "FENGYUN 1C DEB",
        "group": "fengyun-1c-debris",
        "lat": 50.59675070222977,
        "lon": 44.07834384344837,
        "alt_km": 934.9785321521076,
        "timestamp": "2025-12-11T18:59:46.346762+00:00",
        "meta_object_name": "FENGYUN 1C DEB",
        "meta_object_id": "1999-025PM",
        "meta_epoch": "2025-12-10T21:00:28.207008",
        "meta_mean_motion": 13.43747116,
        "meta_eccentricity": 0.0344543,
        "meta_inclination": 99.3143,
        "meta_ra_of_asc_node": 211.7057,
        "meta_arg_of_pericenter": 76.2604,
        "meta_mean_anomaly": 299.2259,
        "meta_ephemeris_type": 0,
        "meta_classification_type": "U",
        "meta_norad_cat_id": 30060,
        "meta_element_set_no": 999,
        "meta_rev_at_epoch": 92218,
        "meta_bstar": 0.0028665,
        "meta_mean_motion_dot": 2.32e-05,
        "meta_mean_motion_ddot": 0,
        "tle_line1": "1 30060U 99025PM  25344.87532647  .00002320  00000+0  28665-2 0  9999",
        "tle_line2": "2 30060  99.3143 211.7057 0344543  76.2604 299.2259 13.43747116922188"
      },
      "geometry": {
        "type": "Point",
        "coordinates": [
          44.07834384344837,
          50.59675070222977
        ]
      }
    },
    {
      "type": "Feature",
      "properties": {
        "norad_id": 30061,
        "name": "FENGYUN 1C DEB",
        "group": "fengyun-1c-debris",
        "lat": 39.01936621131545,
        "lon": -74.88896659781373,
        "alt_km": 1181.039384328812,
        "timestamp": "2025-12-11T18:59:46.346785+00:00",
        "meta_object_name": "FENGYUN 1C DEB",
        "meta_object_id": "1999-025PN",
        "meta_epoch": "2025-12-11T06:08:57.698304",
        "meta_mean_motion": 13.46438053,
        "meta_eccentricity": 0.03727791,
        "meta_inclination": 101.8748,
        "meta_ra_of_asc_node": 94.6603,
        "meta_arg_of_pericenter": 253.8831,
        "meta_mean_anomaly": 176.5624,
        "meta_ephemeris_type": 0,
        "meta_classification_type": "U",
        "meta_norad_cat_id": 30061,
        "meta_element_set_no": 999,
        "meta_rev_at_epoch": 92079,
        "meta_bstar": 0.0051944045,
        "meta_mean_motion_dot": 4.709e-05,
        "meta_mean_motion_ddot": 0,
        "tle_line1": "1 30061U 99025PN  25345.25622336  .00004709  00000+0  51944-2 0  9997",
        "tle_line2": "2 30061 101.8748  94.6603 0372779 253.8831 176.5624 13.46438053920799"
      },
      "geometry": {
        "type": "Point",
        "coordinates": [
          -74.88896659781373,
          39.01936621131545
        ]
      }
    },
    {
      "type": "Feature",
      "properties": {
        "norad_id": 30062,
        "name": "FENGYUN 1C DEB",
        "group": "fengyun-1c-debris",
        "lat": -61.42978765514524,
        "lon": 158.51661518829482,
        "alt_km": 911.551472157048,
        "timestamp": "2025-12-11T18:59:46.346796+00:00",
        "meta_object_name": "FENGYUN 1C DEB",
        "meta_object_id": "1999-025PP",
        "meta_epoch": "2025-12-10T18:46:30.052128",
        "meta_mean_motion": 14.07107541,
        "meta_eccentricity": 0.00495382,
        "meta_inclination": 98.7808,
        "meta_ra_of_asc_node": 354.0259,
        "meta_arg_of_pericenter": 53.7031,
        "meta_mean_anomaly": 119.6226,
        "meta_ephemeris_type": 0,
        "meta_classification_type": "U",
        "meta_norad_cat_id": 30062,
        "meta_element_set_no": 999,
        "meta_rev_at_epoch": 96880,
        "meta_bstar": 0.00067272975,
        "meta_mean_motion_dot": 1.095e-05,
        "meta_mean_motion_ddot": 0,
        "tle_line1": "1 30062U 99025PP  25344.78229227  .00001095  00000+0  67273-3 0  9995",
        "tle_line2": "2 30062  98.7808 354.0259 0049538  53.7031 119.6226 14.07107541968807"
      },
      "geometry": {
        "type": "Point",
        "coordinates": [
          158.51661518829482,
          -61.42978765514524
        ]
      }
    },
    {
      "type": "Feature",
      "properties": {
        "norad_id": 30063,
        "name": "FENGYUN 1C DEB",
        "group": "fengyun-1c-debris",
        "lat": -46.14527679736626,
        "lon": 135.6704117514727,
        "alt_km": 846.8349116486061,
        "timestamp": "2025-12-11T18:59:46.346806+00:00",
        "meta_object_name": "FENGYUN 1C DEB",
        "meta_object_id": "1999-025PQ",
        "meta_epoch": "2025-12-11T04:25:31.831680",
        "meta_mean_motion": 14.15610849,
        "meta_eccentricity": 0.0032938,
        "meta_inclination": 98.5213,
        "meta_ra_of_asc_node": 324.0673,
        "meta_arg_of_pericenter": 138.5899,
        "meta_mean_anomaly": 235.5417,
        "meta_ephemeris_type": 0,
        "meta_classification_type": "U",
        "meta_norad_cat_id": 30063,
        "meta_element_set_no": 999,
        "meta_rev_at_epoch": 97643,
        "meta_bstar": 0.00012206976,
        "meta_mean_motion_dot": 1.99e-06,
        "meta_mean_motion_ddot": 0,
        "tle_line1": "1 30063U 99025PQ  25345.18439620  .00000199  00000+0  12207-3 0  9992",
        "tle_line2": "2 30063  98.5213 324.0673 0032938 138.5899 235.5417 14.15610849976430"
      },
      "geometry": {
        "type": "Point",
        "coordinates": [
          135.6704117514727,
          -46.14527679736626
        ]
      }
    },
    {
      "type": "Feature",
      "properties": {
        "norad_id": 30064,
        "name": "FENGYUN 1C DEB",
        "group": "fengyun-1c-debris",
        "lat": -4.8502113119932835,
        "lon": -2.38684003310999,
        "alt_km": 871.2882293918101,
        "timestamp": "2025-12-11T18:59:46.346817+00:00",
        "meta_object_name": "FENGYUN 1C DEB",
        "meta_object_id": "1999-025PR",
        "meta_epoch": "2025-12-11T00:36:04.909248",
        "meta_mean_motion": 14.14267622,
        "meta_eccentricity": 0.00666142,
        "meta_inclination": 98.6618,
        "meta_ra_of_asc_node": 356.1289,
        "meta_arg_of_pericenter": 116.2403,
        "meta_mean_anomaly": 299.5458,
        "meta_ephemeris_type": 0,
        "meta_classification_type": "U",
        "meta_norad_cat_id": 30064,
        "meta_element_set_no": 999,
        "meta_rev_at_epoch": 97481,
        "meta_bstar": 0.00023637858,
        "meta_mean_motion_dot": 4.19e-06,
        "meta_mean_motion_ddot": 0,
        "tle_line1": "1 30064U 99025PR  25345.02505682  .00000419  00000+0  23638-3 0  9993",
        "tle_line2": "2 30064  98.6618 356.1289 0066614 116.2403 299.5458 14.14267622974813"
      },
      "geometry": {
        "type": "Point",
        "coordinates": [
          -2.38684003310999,
          -4.8502113119932835
        ]
      }
    },
    {
      "type": "Feature",
      "properties": {
        "norad_id": 30065,
        "name": "FENGYUN 1C DEB",
        "group": "fengyun-1c-debris",
        "lat": 44.64439271704731,
        "lon": -49.99366332491052,
        "alt_km": 840.9500367587507,
        "timestamp": "2025-12-11T18:59:46.346827+00:00",
        "meta_object_name": "FENGYUN 1C DEB",
        "meta_object_id": "1999-025PS",
        "meta_epoch": "2025-12-10T04:41:36.380544",
        "meta_mean_motion": 13.86913901,
        "meta_eccentricity": 0.01317595,
        "meta_inclination": 98.6838,
        "meta_ra_of_asc_node": 317.2052,
        "meta_arg_of_pericenter": 38.5254,
        "meta_mean_anomaly": 322.522,
        "meta_ephemeris_type": 0,
        "meta_classification_type": "U",
        "meta_norad_cat_id": 30065,
        "meta_element_set_no": 999,
        "meta_rev_at_epoch": 95636,
        "meta_bstar": 0.0002584381,
        "meta_mean_motion_dot": 2.84e-06,
        "meta_mean_motion_ddot": 0,
        "tle_line1": "1 30065U 99025PS  25344.19555996  .00000284  00000+0  25844-3 0  9995",
        "tle_line2": "2 30065  98.6838 317.2052 0131759  38.5254 322.5220 13.86913901956367"
      },
      "geometry": {
        "type": "Point",
        "coordinates": [
          -49.99366332491052,
          44.64439271704731
        ]
      }
    }
  ]
}